CCSDS_OMM_VERS = 2.0
CREATION_DATE  = 
ORIGINATOR     = 

OBJECT_NAME    = CZ-3B R/B
OBJECT_ID      = 2025-242B
CENTER_NAME    = EARTH
REF_FRAME      = TEME
TIME_SYSTEM    = UTC
MEAN_ELEMENT_THEORY = SGP/SGP4

EPOCH          = 2025-11-05T15:49:27.402816
MEAN_MOTION    = 15.41457457
ECCENTRICITY   = .01037786
INCLINATION    = 97.4571
RA_OF_ASC_NODE = 21.8726
ARG_OF_PERICENTER = 5.1082
MEAN_ANOMALY   = 355.1197

EPHEMERIS_TYPE = 0
CLASSIFICATION_TYPE = U
NORAD_CAT_ID   = 66176
ELEMENT_SET_NO = 999
REV_AT_EPOCH   = 162
BSTAR          = .58814912E-3
MEAN_MOTION_DOT = .29904E-3
MEAN_MOTION_DDOT = 0

CCSDS_OMM_VERS = 2.0
CREATION_DATE  = 
ORIGINATOR     = 

OBJECT_NAME    = STARLINK-35352
OBJECT_ID      = 2025-243A
CENTER_NAME    = EARTH
REF_FRAME      = TEME
TIME_SYSTEM    = UTC
MEAN_ELEMENT_THEORY = SGP/SGP4

EPOCH          = 2025-11-06T18:46:27.232896
MEAN_MOTION    = 15.78923212
ECCENTRICITY   = .0001948
INCLINATION    = 53.1522
RA_OF_ASC_NODE = 100.6276
ARG_OF_PERICENTER = 38.0445
MEAN_ANOMALY   = 322.0714

EPHEMERIS_TYPE = 0
CLASSIFICATION_TYPE = U
NORAD_CAT_ID   = 66177
ELEMENT_SET_NO = 999
REV_AT_EPOCH   = 177
BSTAR          = -.31368E-2
MEAN_MOTION_DOT = -.533339E-2
MEAN_MOTION_DDOT = 0

CCSDS_OMM_VERS = 2.0
CREATION_DATE  = 
ORIGINATOR     = 

OBJECT_NAME    = STARLINK-35363
OBJECT_ID      = 2025-243B
CENTER_NAME    = EARTH
REF_FRAME      = TEME
TIME_SYSTEM    = UTC
MEAN_ELEMENT_THEORY = SGP/SGP4

EPOCH          = 2025-11-06T18:47:28.867200
MEAN_MOTION    = 15.79012369
ECCENTRICITY   = .0000311
INCLINATION    = 53.1528
RA_OF_ASC_NODE = 100.6317
ARG_OF_PERICENTER = 175.1825
MEAN_ANOMALY   = 184.9199

EPHEMERIS_TYPE = 0
CLASSIFICATION_TYPE = U
NORAD_CAT_ID   = 66178
ELEMENT_SET_NO = 999
REV_AT_EPOCH   = 177
BSTAR          = -.33659E-2
MEAN_MOTION_DOT = -.571768E-2
MEAN_MOTION_DDOT = 0

CCSDS_OMM_VERS = 2.0
CREATION_DATE  = 
ORIGINATOR     = 

OBJECT_NAME    = STARLINK-35346
OBJECT_ID      = 2025-243C
CENTER_NAME    = EARTH
REF_FRAME      = TEME
TIME_SYSTEM    = UTC
MEAN_ELEMENT_THEORY = SGP/SGP4

EPOCH          = 2025-11-06T17:16:53.169312
MEAN_MOTION    = 15.79190214
ECCENTRICITY   = .0002247
INCLINATION    = 53.1525
RA_OF_ASC_NODE = 100.9506
ARG_OF_PERICENTER = 9.2507
MEAN_ANOMALY   = 350.8556

EPHEMERIS_TYPE = 0
CLASSIFICATION_TYPE = U
NORAD_CAT_ID   = 66179
ELEMENT_SET_NO = 999
REV_AT_EPOCH   = 176
BSTAR          = -.37812E-2
MEAN_MOTION_DOT = -.642584E-2
MEAN_MOTION_DDOT = 0

CCSDS_OMM_VERS = 2.0
CREATION_DATE  = 
ORIGINATOR     = 

OBJECT_NAME    = STARLINK-35335
OBJECT_ID      = 2025-243D
CENTER_NAME    = EARTH
REF_FRAME      = TEME
TIME_SYSTEM    = UTC
MEAN_ELEMENT_THEORY = SGP/SGP4

EPOCH          = 2025-11-06T17:17:25.527840
MEAN_MOTION    = 15.79224557
ECCENTRICITY   = .0002437
INCLINATION    = 53.1525
RA_OF_ASC_NODE = 100.9535
ARG_OF_PERICENTER = 56.7533
MEAN_ANOMALY   = 303.3722

EPHEMERIS_TYPE = 0
CLASSIFICATION_TYPE = U
NORAD_CAT_ID   = 66180
ELEMENT_SET_NO = 999
REV_AT_EPOCH   = 176
BSTAR          = -.31832E-2
MEAN_MOTION_DOT = -.547875E-2
MEAN_MOTION_DDOT = 0

CCSDS_OMM_VERS = 2.0
CREATION_DATE  = 
ORIGINATOR     = 

OBJECT_NAME    = STARLINK-35342
OBJECT_ID      = 2025-243E
CENTER_NAME    = EARTH
REF_FRAME      = TEME
TIME_SYSTEM    = UTC
MEAN_ELEMENT_THEORY = SGP/SGP4

EPOCH          = 2025-11-06T17:17:56.076288
MEAN_MOTION    = 15.79230157
ECCENTRICITY   = .0002232
INCLINATION    = 53.1525
RA_OF_ASC_NODE = 100.9561
ARG_OF_PERICENTER = 40.4323
MEAN_ANOMALY   = 319.6865

EPHEMERIS_TYPE = 0
CLASSIFICATION_TYPE = U
NORAD_CAT_ID   = 66181
ELEMENT_SET_NO = 999
REV_AT_EPOCH   = 176
BSTAR          = -.33657E-2
MEAN_MOTION_DOT = -.577398E-2
MEAN_MOTION_DDOT = 0

CCSDS_OMM_VERS = 2.0
CREATION_DATE  = 
ORIGINATOR     = 

OBJECT_NAME    = STARLINK-35333
OBJECT_ID      = 2025-243F
CENTER_NAME    = EARTH
REF_FRAME      = TEME
TIME_SYSTEM    = UTC
MEAN_ELEMENT_THEORY = SGP/SGP4

EPOCH          = 2025-11-06T18:49:35.204736
MEAN_MOTION    = 15.78948134
ECCENTRICITY   = .0002012
INCLINATION    = 53.1528
RA_OF_ASC_NODE = 100.6420
ARG_OF_PERICENTER = 42.8412
MEAN_ANOMALY   = 317.2767

EPHEMERIS_TYPE = 0
CLASSIFICATION_TYPE = U
NORAD_CAT_ID   = 66182
ELEMENT_SET_NO = 999
REV_AT_EPOCH   = 177
BSTAR          = -.3607E-2
MEAN_MOTION_DOT = -.608611E-2
MEAN_MOTION_DDOT = 0

CCSDS_OMM_VERS = 2.0
CREATION_DATE  = 
ORIGINATOR     = 

OBJECT_NAME    = STARLINK-35310
OBJECT_ID      = 2025-243G
CENTER_NAME    = EARTH
REF_FRAME      = TEME
TIME_SYSTEM    = UTC
MEAN_ELEMENT_THEORY = SGP/SGP4

EPOCH          = 2025-11-06T17:19:00.509952
MEAN_MOTION    = 15.79211948
ECCENTRICITY   = .00009
INCLINATION    = 53.1526
RA_OF_ASC_NODE = 100.9617
ARG_OF_PERICENTER = 48.6121
MEAN_ANOMALY   = 311.4978

EPHEMERIS_TYPE = 0
CLASSIFICATION_TYPE = U
NORAD_CAT_ID   = 66183
ELEMENT_SET_NO = 999
REV_AT_EPOCH   = 176
BSTAR          = -.31169E-2
MEAN_MOTION_DOT = -.53661E-2
MEAN_MOTION_DDOT = 0

CCSDS_OMM_VERS = 2.0
CREATION_DATE  = 
ORIGINATOR     = 

OBJECT_NAME    = STARLINK-35317
OBJECT_ID      = 2025-243H
CENTER_NAME    = EARTH
REF_FRAME      = TEME
TIME_SYSTEM    = UTC
MEAN_ELEMENT_THEORY = SGP/SGP4

EPOCH          = 2025-11-06T17:24:33.581952
MEAN_MOTION    = 15.79499475
ECCENTRICITY   = .0001934
INCLINATION    = 53.1526
RA_OF_ASC_NODE = 100.9877
ARG_OF_PERICENTER = 45.1639
MEAN_ANOMALY   = 314.9540

EPHEMERIS_TYPE = 0
CLASSIFICATION_TYPE = U
NORAD_CAT_ID   = 66184
ELEMENT_SET_NO = 999
REV_AT_EPOCH   = 176
BSTAR          = -.29847E-2
MEAN_MOTION_DOT = -.521707E-2
MEAN_MOTION_DDOT = 0

CCSDS_OMM_VERS = 2.0
CREATION_DATE  = 
ORIGINATOR     = 

OBJECT_NAME    = STARLINK-35377
OBJECT_ID      = 2025-243J
CENTER_NAME    = EARTH
REF_FRAME      = TEME
TIME_SYSTEM    = UTC
MEAN_ELEMENT_THEORY = SGP/SGP4

EPOCH          = 2025-11-06T15:54:28.950912
MEAN_MOTION    = 15.79724544
ECCENTRICITY   = .000059
INCLINATION    = 53.1528
RA_OF_ASC_NODE = 101.3099
ARG_OF_PERICENTER = 18.3215
MEAN_ANOMALY   = 341.7828

EPHEMERIS_TYPE = 0
CLASSIFICATION_TYPE = U
NORAD_CAT_ID   = 66185
ELEMENT_SET_NO = 999
REV_AT_EPOCH   = 175
BSTAR          = -.30652E-2
MEAN_MOTION_DOT = -.539967E-2
MEAN_MOTION_DDOT = 0

CCSDS_OMM_VERS = 2.0
CREATION_DATE  = 
ORIGINATOR     = 

OBJECT_NAME    = STARLINK-35365
OBJECT_ID      = 2025-243K
CENTER_NAME    = EARTH
REF_FRAME      = TEME
TIME_SYSTEM    = UTC
MEAN_ELEMENT_THEORY = SGP/SGP4

EPOCH          = 2025-11-06T15:55:34.694400
MEAN_MOTION    = 15.79767646
ECCENTRICITY   = .0000496
INCLINATION    = 53.1527
RA_OF_ASC_NODE = 101.3154
ARG_OF_PERICENTER = 23.6569
MEAN_ANOMALY   = 336.4476

EPHEMERIS_TYPE = 0
CLASSIFICATION_TYPE = U
NORAD_CAT_ID   = 66186
ELEMENT_SET_NO = 999
REV_AT_EPOCH   = 175
BSTAR          = -.29058E-2
MEAN_MOTION_DOT = -.51443E-2
MEAN_MOTION_DDOT = 0

CCSDS_OMM_VERS = 2.0
CREATION_DATE  = 
ORIGINATOR     = 

OBJECT_NAME    = STARLINK-35350
OBJECT_ID      = 2025-243L
CENTER_NAME    = EARTH
REF_FRAME      = TEME
TIME_SYSTEM    = UTC
MEAN_ELEMENT_THEORY = SGP/SGP4

EPOCH          = 2025-11-06T17:26:11.669280
MEAN_MOTION    = 15.79553762
ECCENTRICITY   = .0001796
INCLINATION    = 53.1526
RA_OF_ASC_NODE = 100.9964
ARG_OF_PERICENTER = 34.4594
MEAN_ANOMALY   = 325.6544

EPHEMERIS_TYPE = 0
CLASSIFICATION_TYPE = U
NORAD_CAT_ID   = 66187
ELEMENT_SET_NO = 999
REV_AT_EPOCH   = 176
BSTAR          = -.29176E-2
MEAN_MOTION_DOT = -.511819E-2
MEAN_MOTION_DDOT = 0

