CZ-3B R/B               
1 66176U 25242B   25309.65934494  .00029904  00000+0  58815-3 0  9997
2 66176  97.4571  21.8726 0103778   5.1082 355.1197 15.41457457  1622
STARLINK-35352          
1 66177U 25243A   25310.78225964 -.00533339  00000+0 -31368-2 0  9997
2 66177  53.1522 100.6276 0001948  38.0445 322.0714 15.78923212  1779
STARLINK-35363          
1 66178U 25243B   25310.78297300 -.00571768  00000+0 -33659-2 0  9994
2 66178  53.1528 100.6317 0000311 175.1825 184.9199 15.79012369  1775
STARLINK-35346          
1 66179U 25243C   25310.72005983 -.00642584  00000+0 -37812-2 0  9993
2 66179  53.1525 100.9506 0002247   9.2507 350.8556 15.79190214  1766
STARLINK-35335          
1 66180U 25243D   25310.72043435 -.00547875  00000+0 -31832-2 0  9992
2 66180  53.1525 100.9535 0002437  56.7533 303.3722 15.79224557  1763
STARLINK-35342          
1 66181U 25243E   25310.72078792 -.00577398  00000+0 -33657-2 0  9997
2 66181  53.1525 100.9561 0002232  40.4323 319.6865 15.79230157  1764
STARLINK-35333          
1 66182U 25243F   25310.78443524 -.00608611  00000+0 -36070-2 0  9998
2 66182  53.1528 100.6420 0002012  42.8412 317.2767 15.78948134  1776
STARLINK-35310          
1 66183U 25243G   25310.72153368 -.00536610  00000+0 -31169-2 0  9990
2 66183  53.1526 100.9617 0000900  48.6121 311.4978 15.79211948  1767
STARLINK-35317          
1 66184U 25243H   25310.72538868 -.00521707  00000+0 -29847-2 0  9994
2 66184  53.1526 100.9877 0001934  45.1639 314.9540 15.79499475  1766
STARLINK-35377          
1 66185U 25243J   25310.66283508 -.00539967  00000+0 -30652-2 0  9999
2 66185  53.1528 101.3099 0000590  18.3215 341.7828 15.79724544  1753
STARLINK-35365          
1 66186U 25243K   25310.66359600 -.00514430  00000+0 -29058-2 0  9993
2 66186  53.1527 101.3154 0000496  23.6569 336.4476 15.79767646  1751
STARLINK-35350          
1 66187U 25243L   25310.72652395 -.00511819  00000+0 -29176-2 0  9997
2 66187  53.1526 100.9964 0001796  34.4594 325.6544 15.79553762  1766
